ONEWEB-0602             
1 54666U 22166AA  26051.12351456 -.00000079  00000+0 -22346-3 0  9992
2 54666  87.9173 267.3542 0001274  90.4080 269.7200 13.21826237156089
ONEWEB-0603             
1 54667U 22166AB  26051.12927103 -.00000047  00000+0 -14563-3 0  9998
2 54667  87.9183 267.2976 0001501  86.7718 273.3587 13.21826376156016
ONEWEB-0604             
1 54668U 22166AC  26051.04205703  .00000064  00000+0  12266-3 0  9990
2 54668  87.9178 267.3301 0001565  90.6886 269.4428 13.21826574155967
ONEWEB-0605             
1 54669U 22166AD  26051.11117437  .00000004  00000+0 -22558-4 0  9996
2 54669  87.9170 267.3417 0001775  68.6407 291.4916 13.21826749156046
ONEWEB-0606             
1 54670U 22166AE  26051.13256991 -.00000021  00000+0 -81369-4 0  9994
2 54670  87.9175 267.3496 0001704  89.2191 270.9138 13.21825567156103
ONEWEB-0607             
1 54671U 22166AF  26051.09966274 -.00000019  00000+0 -76746-4 0  9992
2 54671  87.9177 267.3200 0001483  84.3642 275.7661 13.21824627156076
ONEWEB-0608             
1 54672U 22166AG  26051.10624069  .00000050  00000+0  90601-4 0  9997
2 54672  87.9181 267.3112 0001545  67.4336 292.6961 13.21826711156083
ONEWEB-0610             
1 54673U 22166AH  26051.08647820  .00000110  00000+0  23382-3 0  9993
2 54673  87.9172 267.3416 0001386  61.3397 298.7876 13.21825885155985
ONEWEB-0611             
1 54674U 22166AJ  26051.15562532  .00000085  00000+0  17338-3 0  9993
2 54674  87.9173 267.3245 0001613  94.6597 265.4721 13.21827018155981
ONEWEB-0612             
1 54675U 22166AK  26051.09308463  .00000092  00000+0  19189-3 0  9992
2 54675  87.9184 267.3191 0001504  83.6902 276.4403 13.21825303155963
ONEWEB-0615             
1 54676U 22166AL  26051.14902565  .00000098  00000+0  20457-3 0  9998
2 54676  87.9176 267.3336 0001550  86.4300 273.7011 13.21825234155980
ONEWEB-0655             
1 54677U 22166AM  26051.12434213 -.00000032  00000+0 -10984-3 0  9991
2 54677  87.9177 267.3403 0001287  87.0690 273.0592 13.21825124155977
ONEWEB-0659             
1 54678U 22166AN  26051.14079656  .00000090  00000+0  18583-3 0  9995
2 54678  87.9171 267.3381 0001659  88.8768 271.2556 13.21826237156062
ONEWEB-0685             
1 54679U 22166AP  26051.14101544  .00000046  00000+0  80247-4 0  9996
2 54679  87.9170 267.3337 0001430  82.5224 277.6072 13.21811439155956
ONEWEB-0712             
1 54680U 22166AQ  26051.10068273  .00000078  00000+0  17092-3 0  9997
2 54680  87.9002 252.0723 0001091 102.9495 257.1757 13.16593243156657
ONEWEB-0714             
1 54681U 22166AR  26051.14737084  .00000145  00000+0  32041-3 0  9991
2 54681  87.9173 267.3269 0001357  85.9142 274.2147 13.21826615156072
