[{"OBJECT_NAME":"ONEWEB-0602","OBJECT_ID":"2022-166AA","EPOCH":"2026-02-20T02:57:51.657984","MEAN_MOTION":13.21826237,"ECCENTRICITY":0.0001274,"INCLINATION":87.9173,"RA_OF_ASC_NODE":267.3542,"ARG_OF_PERICENTER":90.408,"MEAN_ANOMALY":269.72,"EPHEMERIS_TYPE":0,"CLASSIFICATION_TYPE":"U","NORAD_CAT_ID":54666,"ELEMENT_SET_NO":999,"REV_AT_EPOCH":15608,"BSTAR":-0.00022345847,"MEAN_MOTION_DOT":-7.9e-7,"MEAN_MOTION_DDOT":0},{"OBJECT_NAME":"ONEWEB-0603","OBJECT_ID":"2022-166AB","EPOCH":"2026-02-20T03:06:09.016992","MEAN_MOTION":13.21826376,"ECCENTRICITY":0.00015015,"INCLINATION":87.9183,"RA_OF_ASC_NODE":267.2976,"ARG_OF_PERICENTER":86.7718,"MEAN_ANOMALY":273.3587,"EPHEMERIS_TYPE":0,"CLASSIFICATION_TYPE":"U","NORAD_CAT_ID":54667,"ELEMENT_SET_NO":999,"REV_AT_EPOCH":15601,"BSTAR":-0.00014562645,"MEAN_MOTION_DOT":-4.7e-7,"MEAN_MOTION_DDOT":0},{"OBJECT_NAME":"ONEWEB-0604","OBJECT_ID":"2022-166AC","EPOCH":"2026-02-20T01:00:33.727392","MEAN_MOTION":13.21826574,"ECCENTRICITY":0.00015657,"INCLINATION":87.9178,"RA_OF_ASC_NODE":267.3301,"ARG_OF_PERICENTER":90.6886,"MEAN_ANOMALY":269.4428,"EPHEMERIS_TYPE":0,"CLASSIFICATION_TYPE":"U","NORAD_CAT_ID":54668,"ELEMENT_SET_NO":999,"REV_AT_EPOCH":15596,"BSTAR":0.00012265904,"MEAN_MOTION_DOT":6.4e-7,"MEAN_MOTION_DDOT":0},{"OBJECT_NAME":"ONEWEB-0605","OBJECT_ID":"2022-166AD","EPOCH":"2026-02-20T02:40:05.465568","MEAN_MOTION":13.21826749,"ECCENTRICITY":0.00017755,"INCLINATION":87.917,"RA_OF_ASC_NODE":267.3417,"ARG_OF_PERICENTER":68.6407,"MEAN_ANOMALY":291.4916,"EPHEMERIS_TYPE":0,"CLASSIFICATION_TYPE":"U","NORAD_CAT_ID":54669,"ELEMENT_SET_NO":999,"REV_AT_EPOCH":15604,"BSTAR":-2.2557659e-5,"MEAN_MOTION_DOT":4.0e-8,"MEAN_MOTION_DDOT":0},{"OBJECT_NAME":"ONEWEB-0606","OBJECT_ID":"2022-166AE","EPOCH":"2026-02-20T03:10:54.040224","MEAN_MOTION":13.21825567,"ECCENTRICITY":0.00017047,"INCLINATION":87.9175,"RA_OF_ASC_NODE":267.3496,"ARG_OF_PERICENTER":89.2191,"MEAN_ANOMALY":270.9138,"EPHEMERIS_TYPE":0,"CLASSIFICATION_TYPE":"U","NORAD_CAT_ID":54670,"ELEMENT_SET_NO":999,"REV_AT_EPOCH":15610,"BSTAR":-8.1368641e-5,"MEAN_MOTION_DOT":-2.1e-7,"MEAN_MOTION_DDOT":0},{"OBJECT_NAME":"ONEWEB-0607","OBJECT_ID":"2022-166AF","EPOCH":"2026-02-20T02:23:30.860736","MEAN_MOTION":13.21824627,"ECCENTRICITY":0.00014831,"INCLINATION":87.9177,"RA_OF_ASC_NODE":267.32,"ARG_OF_PERICENTER":84.3642,"MEAN_ANOMALY":275.7661,"EPHEMERIS_TYPE":0,"CLASSIFICATION_TYPE":"U","NORAD_CAT_ID":54671,"ELEMENT_SET_NO":999,"REV_AT_EPOCH":15607,"BSTAR":-7.6745705e-5,"MEAN_MOTION_DOT":-1.9e-7,"MEAN_MOTION_DDOT":0},{"OBJECT_NAME":"ONEWEB-0608","OBJECT_ID":"2022-166AG","EPOCH":"2026-02-20T02:32:59.195616","MEAN_MOTION":13.21826711,"ECCENTRICITY":0.00015458,"INCLINATION":87.9181,"RA_OF_ASC_NODE":267.3112,"ARG_OF_PERICENTER":67.4336,"MEAN_ANOMALY":292.6961,"EPHEMERIS_TYPE":0,"CLASSIFICATION_TYPE":"U","NORAD_CAT_ID":54672,"ELEMENT_SET_NO":999,"REV_AT_EPOCH":15608,"BSTAR":9.0600753e-5,"MEAN_MOTION_DOT":5.0e-7,"MEAN_MOTION_DDOT":0},{"OBJECT_NAME":"ONEWEB-0610","OBJECT_ID":"2022-166AH","EPOCH":"2026-02-20T02:04:31.716480","MEAN_MOTION":13.21825885,"ECCENTRICITY":0.0001386,"INCLINATION":87.9172,"RA_OF_ASC_NODE":267.3416,"ARG_OF_PERICENTER":61.3397,"MEAN_ANOMALY":298.7876,"EPHEMERIS_TYPE":0,"CLASSIFICATION_TYPE":"U","NORAD_CAT_ID":54673,"ELEMENT_SET_NO":999,"REV_AT_EPOCH":15598,"BSTAR":0.00023382095,"MEAN_MOTION_DOT":1.1e-6,"MEAN_MOTION_DDOT":0},{"OBJECT_NAME":"ONEWEB-0611","OBJECT_ID":"2022-166AJ","EPOCH":"2026-02-20T03:44:06.027648","MEAN_MOTION":13.21827018,"ECCENTRICITY":0.00016137,"INCLINATION":87.9173,"RA_OF_ASC_NODE":267.3245,"ARG_OF_PERICENTER":94.6597,"MEAN_ANOMALY":265.4721,"EPHEMERIS_TYPE":0,"CLASSIFICATION_TYPE":"U","NORAD_CAT_ID":54674,"ELEMENT_SET_NO":999,"REV_AT_EPOCH":15598,"BSTAR":0.00017338011,"MEAN_MOTION_DOT":8.5e-7,"MEAN_MOTION_DDOT":0},{"OBJECT_NAME":"ONEWEB-0612","OBJECT_ID":"2022-166AK","EPOCH":"2026-02-20T02:14:02.512032","MEAN_MOTION":13.21825303,"ECCENTRICITY":0.00015046,"INCLINATION":87.9184,"RA_OF_ASC_NODE":267.3191,"ARG_OF_PERICENTER":83.6902,"MEAN_ANOMALY":276.4403,"EPHEMERIS_TYPE":0,"CLASSIFICATION_TYPE":"U","NORAD_CAT_ID":54675,"ELEMENT_SET_NO":999,"REV_AT_EPOCH":15596,"BSTAR":0.00019188919,"MEAN_MOTION_DOT":9.2e-7,"MEAN_MOTION_DDOT":0},{"OBJECT_NAME":"ONEWEB-0615","OBJECT_ID":"2022-166AL","EPOCH":"2026-02-20T03:34:35.816160","MEAN_MOTION":13.21825234,"ECCENTRICITY":0.00015502,"INCLINATION":87.9176,"RA_OF_ASC_NODE":267.3336,"ARG_OF_PERICENTER":86.43,"MEAN_ANOMALY":273.7011,"EPHEMERIS_TYPE":0,"CLASSIFICATION_TYPE":"U","NORAD_CAT_ID":54676,"ELEMENT_SET_NO":999,"REV_AT_EPOCH":15598,"BSTAR":0.00020457431,"MEAN_MOTION_DOT":9.8e-7,"MEAN_MOTION_DDOT":0},{"OBJECT_NAME":"ONEWEB-0655","OBJECT_ID":"2022-166AM","EPOCH":"2026-02-20T02:59:03.160032","MEAN_MOTION":13.21825124,"ECCENTRICITY":0.00012877,"INCLINATION":87.9177,"RA_OF_ASC_NODE":267.3403,"ARG_OF_PERICENTER":87.069,"MEAN_ANOMALY":273.0592,"EPHEMERIS_TYPE":0,"CLASSIFICATION_TYPE":"U","NORAD_CAT_ID":54677,"ELEMENT_SET_NO":999,"REV_AT_EPOCH":15597,"BSTAR":-0.00010983644,"MEAN_MOTION_DOT":-3.2e-7,"MEAN_MOTION_DDOT":0},{"OBJECT_NAME":"ONEWEB-0659","OBJECT_ID":"2022-166AN","EPOCH":"2026-02-20T03:22:44.822784","MEAN_MOTION":13.21826237,"ECCENTRICITY":0.00016599,"INCLINATION":87.9171,"RA_OF_ASC_NODE":267.3381,"ARG_OF_PERICENTER":88.8768,"MEAN_ANOMALY":271.2556,"EPHEMERIS_TYPE":0,"CLASSIFICATION_TYPE":"U","NORAD_CAT_ID":54678,"ELEMENT_SET_NO":999,"REV_AT_EPOCH":15606,"BSTAR":0.00018582956,"MEAN_MOTION_DOT":9.0e-7,"MEAN_MOTION_DDOT":0},{"OBJECT_NAME":"ONEWEB-0685","OBJECT_ID":"2022-166AP","EPOCH":"2026-02-20T03:23:03.734016","MEAN_MOTION":13.21811439,"ECCENTRICITY":0.00014309,"INCLINATION":87.917,"RA_OF_ASC_NODE":267.3337,"ARG_OF_PERICENTER":82.5224,"MEAN_ANOMALY":277.6072,"EPHEMERIS_TYPE":0,"CLASSIFICATION_TYPE":"U","NORAD_CAT_ID":54679,"ELEMENT_SET_NO":999,"REV_AT_EPOCH":15595,"BSTAR":8.0247068e-5,"MEAN_MOTION_DOT":4.6e-7,"MEAN_MOTION_DDOT":0},{"OBJECT_NAME":"ONEWEB-0712","OBJECT_ID":"2022-166AQ","EPOCH":"2026-02-20T02:24:58.987872","MEAN_MOTION":13.16593243,"ECCENTRICITY":0.00010914,"INCLINATION":87.9002,"RA_OF_ASC_NODE":252.0723,"ARG_OF_PERICENTER":102.9495,"MEAN_ANOMALY":257.1757,"EPHEMERIS_TYPE":0,"CLASSIFICATION_TYPE":"U","NORAD_CAT_ID":54680,"ELEMENT_SET_NO":999,"REV_AT_EPOCH":15665,"BSTAR":0.00017092245,"MEAN_MOTION_DOT":7.8e-7,"MEAN_MOTION_DDOT":0},{"OBJECT_NAME":"ONEWEB-0714","OBJECT_ID":"2022-166AR","EPOCH":"2026-02-20T03:32:12.840576","MEAN_MOTION":13.21826615,"ECCENTRICITY":0.00013574,"INCLINATION":87.9173,"RA_OF_ASC_NODE":267.3269,"ARG_OF_PERICENTER":85.9142,"MEAN_ANOMALY":274.2147,"EPHEMERIS_TYPE":0,"CLASSIFICATION_TYPE":"U","NORAD_CAT_ID":54681,"ELEMENT_SET_NO":999,"REV_AT_EPOCH":15607,"BSTAR":0.00032040768,"MEAN_MOTION_DOT":1.45e-6,"MEAN_MOTION_DDOT":0}]
